NORAD_CAT_ID,OBJECT_NAME,OBJECT_TYPE,EPOCH,MEAN_MOTION,ECCENTRICITY,INCLINATION,RA_OF_ASC_NODE,ARG_OF_PERICENTER,MEAN_ANOMALY,BSTAR,MEAN_MOTION_DOT,MEAN_MOTION_DDOT,TLE_LINE0,TLE_LINE1,TLE_LINE2,SEMIMAJOR_AXIS,PERIOD,APOGEE,PERIGEE,DECAYED
56459.0,STARLINK-6048,PAYLOAD,2023-12-04 12:01:49,14.9832242,0.0002564,70.002,67.4718,241.3452,118.7449,-0.00015485,-1.94e-05,0.0,0 STARLINK-6048,1 56459U 23064M   23338.50126848 -.00001940  00000-0 -15485-3 0  9999,2 56459  70.0020  67.4718 0002564 241.3452 118.7449 14.98322420 31857,6950.216,96.107,573.863,570.299,0.0
56459.0,STARLINK-6048,PAYLOAD,2023-12-05 12:03:49,14.9831925,0.0002646,70.003,64.9493,234.245,125.8463,0.0004166,4.88e-05,0.0,0 STARLINK-6048,1 56459U 23064M   23339.50265668  .00004880  00000-0  41660-3 0  9992,2 56459  70.0030  64.9493 0002646 234.2450 125.8463 14.98319250 32000,6950.226,96.108,573.93,570.252,0.0
56459.0,STARLINK-6048,PAYLOAD,2023-12-05 15:16:05,14.98314815,0.0002502,70.0026,64.6123,244.5472,115.5428,0.00049087,5.766e-05,0.0,0 STARLINK-6048,1 56459U 23064M   23339.63617917  .00005766  00000-0  49087-3 0  9999,2 56459  70.0026  64.6123 0002502 244.5472 115.5428 14.98314815 31661,6950.24,96.108,573.844,570.366,0.0
56459.0,STARLINK-6048,PAYLOAD,2023-12-06 12:05:51,14.98322942,0.0003101,70.0041,62.4266,208.0132,152.086,-5.5652e-05,-7.57e-06,0.0,0 STARLINK-6048,1 56459U 23064M   23340.50406655 -.00000757  00000-0 -55652-4 0  9995,2 56459  70.0041  62.4266 0003101 208.0132 152.0860 14.98322942 32157,6950.215,96.107,574.235,569.924,0.0
56459.0,STARLINK-6048,PAYLOAD,2023-12-07 05:43:18,14.98345282,0.0002329,70.0037,60.5719,242.0505,118.0419,-0.00020228,-2.506e-05,0.0,0 STARLINK-6048,1 56459U 23064M   23341.23841329 -.00002506  00000-0 -20228-3 0  9991,2 56459  70.0037  60.5719 0002329 242.0505 118.0419 14.98345282 32263,6950.146,96.106,573.629,570.392,0.0
56459.0,STARLINK-6048,PAYLOAD,2023-12-07 12:07:51,14.98340906,0.0002538,70.0024,59.8986,247.9368,112.1521,-0.00022005,-2.718e-05,0.0,0 STARLINK-6048,1 56459U 23064M   23341.50545411 -.00002718  00000-0 -22005-3 0  9994,2 56459  70.0024  59.8986 0002538 247.9368 112.1521 14.98340906 31940,6950.159,96.106,573.788,570.26,0.0
56459.0,STARLINK-6048,PAYLOAD,2023-12-08 12:09:51,14.98328123,0.00029,70.0027,57.3767,228.1796,131.9116,3.747e-05,3.54e-06,0.0,0 STARLINK-6048,1 56459U 23064M   23342.50685086  .00000354  00000-0  37470-4 0  9993,2 56459  70.0027  57.3767 0002900 228.1796 131.9116 14.98328123 32455,6950.199,96.107,574.079,570.048,0.0
56459.0,STARLINK-6048,PAYLOAD,2023-12-09 04:11:12,14.9837773,0.0002425,70.0009,55.6892,240.6749,119.4167,-0.00070748,-8.534e-05,0.0,0 STARLINK-6048,1 56459U 23064M   23343.17444686 -.00008534  00000-0 -70748-3 0  9990,2 56459  70.0009  55.6892 0002425 240.6749 119.4167 14.98377730 32550,6950.045,96.104,573.596,570.225,0.0
56459.0,STARLINK-6048,PAYLOAD,2023-12-09 10:35:39,14.9839775,0.0002589,70.004,55.0191,218.8824,141.215,0.00078142,9.259e-05,0.0,0 STARLINK-6048,1 56459U 23064M   23343.44142476  .00009259  00000-0  78142-3 0  9991,2 56459  70.0040  55.0191 0002589 218.8824 141.2150 14.98397750 32596,6949.983,96.103,573.648,570.049,0.0
56459.0,STARLINK-6048,PAYLOAD,2023-12-09 12:11:42,14.98449533,0.0002503,70.0027,54.8483,239.9238,120.1673,0.001344,0.00016029,0.0,0 STARLINK-6048,1 56459U 23064M   23343.50813515  .00016029  00000-0  13440-2 0  9999,2 56459  70.0027  54.8483 0002503 239.9238 120.1673 14.98449533 32246,6949.823,96.099,573.428,569.949,0.0
56459.0,STARLINK-6048,PAYLOAD,2023-12-09 15:23:53,14.98505725,0.0002233,70.0038,54.5141,278.7481,81.3426,0.0019143,0.00022926,0.0,0 STARLINK-6048,1 56459U 23064M   23343.64159589  .00022926  00000-0  19143-2 0  9997,2 56459  70.0038  54.5141 0002233 278.7481  81.3426 14.98505725 32629,6949.65,96.096,573.066,569.963,0.0
56459.0,STARLINK-6048,PAYLOAD,2023-12-10 04:12:35,14.98701435,0.0003701,70.0001,53.1614,276.5796,83.4942,0.00355,0.00042939,0.0,0 STARLINK-6048,1 56459U 23064M   23344.17540665  .00042939  00000-0  35500-2 0  9996,2 56459  70.0001  53.1614 0003701 276.5796  83.4942 14.98701435 32706,6949.044,96.083,573.481,568.338,0.0
56459.0,STARLINK-6048,PAYLOAD,2023-12-10 13:49:06,14.9880653,0.0002946,70.0004,52.1504,268.5268,91.5554,0.004243,0.0005154,0.0,0 STARLINK-6048,1 56459U 23064M   23344.57577322  .00051540  00000-0  42430-2 0  9998,2 56459  70.0004  52.1504 0002946 268.5268  91.5554 14.98806530 32409,6948.72,96.076,572.632,568.538,0.0
56459.0,STARLINK-6048,PAYLOAD,2023-12-11 10:38:22,14.98885865,0.0003355,69.9991,49.9597,270.5639,89.5136,0.0038768,0.00047152,0.0,0 STARLINK-6048,1 56459U 23064M   23345.44331315  .00047152  00000-0  38768-2 0  9998,2 56459  69.9991  49.9597 0003355 270.5639  89.5136 14.98885865 32891,6948.474,96.071,572.671,568.008,0.0
56459.0,STARLINK-6048,PAYLOAD,2023-12-11 13:50:33,14.98900486,0.0003185,69.9994,49.6233,269.8653,90.2141,0.0037948,0.00046163,0.0,0 STARLINK-6048,1 56459U 23064M   23345.57677360  .00046163  00000-0  37948-2 0  9995,2 56459  69.9994  49.6233 0003185 269.8653  90.2141 14.98900486 32551,6948.429,96.07,572.507,568.081,0.0
56459.0,STARLINK-6048,PAYLOAD,2023-12-11 20:14:53,14.98974266,0.0003526,69.9989,48.9498,268.1549,91.9206,0.002711,0.00032954,0.0,0 STARLINK-6048,1 56459U 23064M   23345.84367883  .00032954  00000-0  27110-2 0  9994,2 56459  69.9989  48.9498 0003526 268.1549  91.9206 14.98974266 32596,6948.201,96.066,572.516,567.616,0.0
56459.0,STARLINK-6048,PAYLOAD,2023-12-12 14:00:01,14.99134618,0.0003546,70.0013,47.0824,273.8165,117.1071,0.00048708,5.846e-05,0.0,0 STARLINK-6048,1 56459U 23064M   23346.58334491  .00005846  00000-0  48708-3 0  9992,2 56459  70.0013  47.0824 0003546 273.8165 117.1071 14.99134618 33063,6947.706,96.055,572.034,567.107,0.0
56459.0,STARLINK-6048,PAYLOAD,2023-12-13 00:00:00,14.99101045,0.0003549,70.0011,46.0305,268.7446,210.2552,0.0054681,0.0006711,0.0,0 STARLINK-6048,1 56459U 23064M   23347.00001157  .00067110  00000-0  54681-2 0  9998,2 56459  70.0011  46.0305 0003549 268.7446 210.2552 14.99101045  5754,6947.81,96.058,572.14,567.209,0.0
56459.0,STARLINK-6048,PAYLOAD,2023-12-13 13:53:01,14.9914102,0.0003351,69.9993,44.5697,269.577,90.5005,1.8369e-05,1.3e-06,0.0,0 STARLINK-6048,1 56459U 23064M   23347.57848694  .00000130  00000-0  18369-4 0  9999,2 56459  69.9993  44.5697 0003351 269.5770  90.5005 14.99141020 32857,6947.686,96.055,571.879,567.223,0.0
56459.0,STARLINK-6048,PAYLOAD,2023-12-14 04:17:46,14.99126099,0.00033,69.9998,43.0553,262.7966,97.2818,0.00019992,2.342e-05,0.0,0 STARLINK-6048,1 56459U 23064M   23348.17900637  .00002342  00000-0  19992-3 0  9991,2 56459  69.9998  43.0553 0003300 262.7966  97.2818 14.99126099 33309,6947.732,96.056,571.89,567.304,0.0
56459.0,STARLINK-6048,PAYLOAD,2023-12-14 12:18:10,14.99139626,0.0003142,69.9999,42.2129,259.0515,101.0291,8.0963e-07,-8.4e-07,0.0,0 STARLINK-6048,1 56459U 23064M   23348.51262291 -.00000084  00000-0  80963-6 0  9997,2 56459  69.9999  42.2129 0003142 259.0515 101.0291 14.99139626 33357,6947.69,96.055,571.738,567.372,0.0
56459.0,STARLINK-6048,PAYLOAD,2023-12-14 13:54:15,14.99139951,0.0003142,69.9999,42.0445,258.9333,101.1473,4.0103e-06,-4.5e-07,0.0,0 STARLINK-6048,1 56459U 23064M   23348.57934657 -.00000045  00000-0  40103-5 0  9993,2 56459  69.9999  42.0445 0003142 258.9333 101.1473 14.99139951 33008,6947.689,96.055,571.737,567.371,0.0
56459.0,STARLINK-6048,PAYLOAD,2023-12-15 12:19:24,14.9914585,0.0003439,69.999,39.6848,272.0947,87.9818,5.4099e-05,5.66e-06,0.0,0 STARLINK-6048,1 56459U 23064M   23349.51347576  .00000566  00000-0  54099-4 0  9991,2 56459  69.9990  39.6848 0003439 272.0947  87.9818 14.99145850 33509,6947.671,96.055,571.925,567.147,0.0
56459.0,STARLINK-6048,PAYLOAD,2023-12-15 13:55:29,14.99146127,0.0003444,69.999,39.5164,272.2448,87.8317,5.451e-05,5.71e-06,0.0,0 STARLINK-6048,1 56459U 23064M   23349.58019928  .00000571  00000-0  54510-4 0  9999,2 56459  69.9990  39.5164 0003444 272.2448  87.8317 14.99146127 33155,6947.67,96.055,571.928,567.142,0.0
56459.0,STARLINK-6048,PAYLOAD,2023-12-16 04:20:14,14.99135237,0.0002666,70.0008,38.002,256.5664,103.5198,-4.4709e-06,-1.48e-06,0.0,0 STARLINK-6048,1 56459U 23064M   23350.18072388 -.00000148  00000-0 -44709-5 0  9998,2 56459  70.0008  38.0020 0002666 256.5664 103.5198 14.99135237 33606,6947.704,96.055,571.421,567.717,0.0
56459.0,STARLINK-6048,PAYLOAD,2023-12-16 12:20:39,14.99131849,0.0002917,70.0002,37.1597,259.4211,100.662,-4.44e-05,-6.35e-06,0.0,0 STARLINK-6048,1 56459U 23064M   23350.51434806 -.00000635  00000-0 -44400-4 0  9990,2 56459  70.0002  37.1597 0002917 259.4211 100.6620 14.99131849 33296,6947.714,96.056,571.606,567.553,0.0
56459.0,STARLINK-6048,PAYLOAD,2023-12-17 04:21:40,14.99024384,0.0003088,70.001,35.4754,239.9403,120.1451,-0.0010805,-0.00013195,0.0,0 STARLINK-6048,1 56459U 23064M   23351.18171562 -.00013195  00000-0 -10805-2 0  9996,2 56459  70.0010  35.4754 0003088 239.9403 120.1451 14.99024384 33752,6948.046,96.062,572.057,567.766,0.0
56459.0,STARLINK-6048,PAYLOAD,2023-12-17 10:46:25,14.98738976,0.0002898,70.0006,34.8029,234.4614,125.6275,-0.0040528,-0.00048628,0.0,0 STARLINK-6048,1 56459U 23064M   23351.44890484 -.00048628  00000-0 -40528-2 0  9990,2 56459  70.0006  34.8029 0002898 234.4614 125.6275 14.98738976 33793,6948.928,96.081,572.807,568.78,0.0
56459.0,STARLINK-6048,PAYLOAD,2023-12-18 10:48:12,14.98614041,0.0003141,69.9994,32.2768,265.1953,94.8847,-0.0040975,-0.00049003,0.0,0 STARLINK-6048,1 56459U 23064M   23352.45014382 -.00049003  00000-0 -40975-2 0  9991,2 56459  69.9994  32.2768 0003141 265.1953  94.8847 14.98614041 33942,6949.315,96.089,573.362,568.997,0.0
56459.0,STARLINK-6048,PAYLOAD,2023-12-18 12:24:19,14.98608403,0.0003101,69.9995,32.1082,265.989,94.0915,-0.0040611,-0.00048564,0.0,0 STARLINK-6048,1 56459U 23064M   23352.51689347 -.00048564  00000-0 -40611-2 0  9995,2 56459  69.9995  32.1082 0003101 265.9890  94.0915 14.98608403 33599,6949.332,96.089,573.352,569.042,0.0
